{
  "type": "FeatureCollection",
  "features": [
    {
      "type": "Feature",
      "properties": {
        "norad_id": 33924,
        "name": "COSMOS 2251 DEB",
        "group": "cosmos-2251-debris",
        "lat": 59.37991543150824,
        "lon": -73.41487093638871,
        "alt_km": 1260.4816824877198,
        "timestamp": "2025-12-20T16:47:36.677824+00:00",
        "meta_object_name": "COSMOS 2251 DEB",
        "meta_object_id": "1993-036ED",
        "meta_epoch": "2025-12-20T04:01:45.333120",
        "meta_mean_motion": 13.50234434,
        "meta_eccentricity": 0.04038874,
        "meta_inclination": 73.9134,
        "meta_ra_of_asc_node": 258.2614,
        "meta_arg_of_pericenter": 292.4064,
        "meta_mean_anomaly": 63.4727,
        "meta_ephemeris_type": 0,
        "meta_classification_type": "U",
        "meta_norad_cat_id": 33924,
        "meta_element_set_no": 999,
        "meta_rev_at_epoch": 82839,
        "meta_bstar": 0.00039421552,
        "meta_mean_motion_dot": 3.93e-06,
        "meta_mean_motion_ddot": 0,
        "tle_line1": "1 33924U 93036ED  25354.16788580  .00000393  00000+0  39422-3 0  9991",
        "tle_line2": "2 33924  73.9134 258.2614 0403887 292.4064  63.4727 13.50234434828393"
      },
      "geometry": {
        "type": "Point",
        "coordinates": [
          -73.41487093638871,
          59.37991543150824
        ]
      }
    },
    {
      "type": "Feature",
      "properties": {
        "norad_id": 33928,
        "name": "COSMOS 2251 DEB",
        "group": "cosmos-2251-debris",
        "lat": -52.11608983316036,
        "lon": -120.66847224772586,
        "alt_km": 744.1693247335606,
        "timestamp": "2025-12-20T16:47:36.677835+00:00",
        "meta_object_name": "COSMOS 2251 DEB",
        "meta_object_id": "1993-036EH",
        "meta_epoch": "2025-12-20T10:43:45.400800",
        "meta_mean_motion": 14.47417447,
        "meta_eccentricity": 0.0061849,
        "meta_inclination": 73.9255,
        "meta_ra_of_asc_node": 38.0541,
        "meta_arg_of_pericenter": 330.5686,
        "meta_mean_anomaly": 29.1994,
        "meta_ephemeris_type": 0,
        "meta_classification_type": "U",
        "meta_norad_cat_id": 33928,
        "meta_element_set_no": 999,
        "meta_rev_at_epoch": 88756,
        "meta_bstar": 0.00017943,
        "meta_mean_motion_dot": 6.44e-06,
        "meta_mean_motion_ddot": 0,
        "tle_line1": "1 33928U 93036EH  25354.44705325  .00000644  00000+0  17943-3 0  9995",
        "tle_line2": "2 33928  73.9255  38.0541 0061849 330.5686  29.1994 14.47417447887569"
      },
      "geometry": {
        "type": "Point",
        "coordinates": [
          -120.66847224772586,
          -52.11608983316036
        ]
      }
    },
    {
      "type": "Feature",
      "properties": {
        "norad_id": 33932,
        "name": "COSMOS 2251 DEB",
        "group": "cosmos-2251-debris",
        "lat": 50.886413215752114,
        "lon": 100.62034564552816,
        "alt_km": 766.4125245460209,
        "timestamp": "2025-12-20T16:47:36.677845+00:00",
        "meta_object_name": "COSMOS 2251 DEB",
        "meta_object_id": "1993-036EM",
        "meta_epoch": "2025-12-20T06:11:57.074208",
        "meta_mean_motion": 14.38778348,
        "meta_eccentricity": 0.0035713,
        "meta_inclination": 74.0341,
        "meta_ra_of_asc_node": 302.0503,
        "meta_arg_of_pericenter": 16.3831,
        "meta_mean_anomaly": 343.8468,
        "meta_ephemeris_type": 0,
        "meta_classification_type": "U",
        "meta_norad_cat_id": 33932,
        "meta_element_set_no": 999,
        "meta_rev_at_epoch": 88106,
        "meta_bstar": 0.00034489,
        "meta_mean_motion_dot": 1.041e-05,
        "meta_mean_motion_ddot": 0,
        "tle_line1": "1 33932U 93036EM  25354.25829947  .00001041  00000+0  34489-3 0  9992",
        "tle_line2": "2 33932  74.0341 302.0503 0035713  16.3831 343.8468 14.38778348881067"
      },
      "geometry": {
        "type": "Point",
        "coordinates": [
          100.62034564552816,
          50.886413215752114
        ]
      }
    },
    {
      "type": "Feature",
      "properties": {
        "norad_id": 33933,
        "name": "COSMOS 2251 DEB",
        "group": "cosmos-2251-debris",
        "lat": -3.652173442349867,
        "lon": -133.32724600729728,
        "alt_km": 816.8960859315866,
        "timestamp": "2025-12-20T16:47:36.677855+00:00",
        "meta_object_name": "COSMOS 2251 DEB",
        "meta_object_id": "1993-036EN",
        "meta_epoch": "2025-12-20T04:13:15.585312",
        "meta_mean_motion": 14.33499387,
        "meta_eccentricity": 0.00708922,
        "meta_inclination": 74.0891,
        "meta_ra_of_asc_node": 46.5839,
        "meta_arg_of_pericenter": 52.7662,
        "meta_mean_anomaly": 307.9929,
        "meta_ephemeris_type": 0,
        "meta_classification_type": "U",
        "meta_norad_cat_id": 33933,
        "meta_element_set_no": 999,
        "meta_rev_at_epoch": 87891,
        "meta_bstar": 0.00018603773,
        "meta_mean_motion_dot": 5.04e-06,
        "meta_mean_motion_ddot": 0,
        "tle_line1": "1 33933U 93036EN  25354.17587483  .00000504  00000+0  18604-3 0  9994",
        "tle_line2": "2 33933  74.0891  46.5839 0070892  52.7662 307.9929 14.33499387878914"
      },
      "geometry": {
        "type": "Point",
        "coordinates": [
          -133.32724600729728,
          -3.652173442349867
        ]
      }
    },
    {
      "type": "Feature",
      "properties": {
        "norad_id": 33934,
        "name": "COSMOS 2251 DEB",
        "group": "cosmos-2251-debris",
        "lat": -43.71495043869985,
        "lon": 69.52404490136112,
        "alt_km": 705.0003937073088,
        "timestamp": "2025-12-20T16:47:36.677865+00:00",
        "meta_object_name": "COSMOS 2251 DEB",
        "meta_object_id": "1993-036EP",
        "meta_epoch": "2025-12-20T07:07:53.004000",
        "meta_mean_motion": 14.59166138,
        "meta_eccentricity": 0.0015376,
        "meta_inclination": 74.0383,
        "meta_ra_of_asc_node": 86.1725,
        "meta_arg_of_pericenter": 209.9246,
        "meta_mean_anomaly": 150.1041,
        "meta_ephemeris_type": 0,
        "meta_classification_type": "U",
        "meta_norad_cat_id": 33934,
        "meta_element_set_no": 999,
        "meta_rev_at_epoch": 88849,
        "meta_bstar": 0.00058909,
        "meta_mean_motion_dot": 2.752e-05,
        "meta_mean_motion_ddot": 0,
        "tle_line1": "1 33934U 93036EP  25354.29714125  .00002752  00000+0  58909-3 0  9992",
        "tle_line2": "2 33934  74.0383  86.1725 0015376 209.9246 150.1041 14.59166138888495"
      },
      "geometry": {
        "type": "Point",
        "coordinates": [
          69.52404490136112,
          -43.71495043869985
        ]
      }
    },
    {
      "type": "Feature",
      "properties": {
        "norad_id": 33936,
        "name": "COSMOS 2251 DEB",
        "group": "cosmos-2251-debris",
        "lat": -73.17424294550386,
        "lon": -49.11954709222941,
        "alt_km": 702.1818148623543,
        "timestamp": "2025-12-20T16:47:36.677875+00:00",
        "meta_object_name": "COSMOS 2251 DEB",
        "meta_object_id": "1993-036ER",
        "meta_epoch": "2025-12-20T05:40:23.543904",
        "meta_mean_motion": 14.60313301,
        "meta_eccentricity": 0.0027019,
        "meta_inclination": 74.0179,
        "meta_ra_of_asc_node": 23.1559,
        "meta_arg_of_pericenter": 176.9088,
        "meta_mean_anomaly": 183.225,
        "meta_ephemeris_type": 0,
        "meta_classification_type": "U",
        "meta_norad_cat_id": 33936,
        "meta_element_set_no": 999,
        "meta_rev_at_epoch": 88999,
        "meta_bstar": 0.00041877,
        "meta_mean_motion_dot": 2.004e-05,
        "meta_mean_motion_ddot": 0,
        "tle_line1": "1 33936U 93036ER  25354.23638361  .00002004  00000+0  41877-3 0  9991",
        "tle_line2": "2 33936  74.0179  23.1559 0027019 176.9088 183.2250 14.60313301889993"
      },
      "geometry": {
        "type": "Point",
        "coordinates": [
          -49.11954709222941,
          -73.17424294550386
        ]
      }
    },
    {
      "type": "Feature",
      "properties": {
        "norad_id": 33938,
        "name": "COSMOS 2251 DEB",
        "group": "cosmos-2251-debris",
        "lat": 69.90248548547059,
        "lon": -39.12279938152031,
        "alt_km": 740.784636079954,
        "timestamp": "2025-12-20T16:47:36.677886+00:00",
        "meta_object_name": "COSMOS 2251 DEB",
        "meta_object_id": "1993-036ET",
        "meta_epoch": "2025-12-20T07:09:57.024288",
        "meta_mean_motion": 14.46814206,
        "meta_eccentricity": 0.0016832,
        "meta_inclination": 74.0437,
        "meta_ra_of_asc_node": 193.0635,
        "meta_arg_of_pericenter": 274.5885,
        "meta_mean_anomaly": 259.2153,
        "meta_ephemeris_type": 0,
        "meta_classification_type": "U",
        "meta_norad_cat_id": 33938,
        "meta_element_set_no": 999,
        "meta_rev_at_epoch": 88509,
        "meta_bstar": 0.00029853,
        "meta_mean_motion_dot": 1.056e-05,
        "meta_mean_motion_ddot": 0,
        "tle_line1": "1 33938U 93036ET  25354.29857667  .00001056  00000+0  29853-3 0  9997",
        "tle_line2": "2 33938  74.0437 193.0635 0016832 274.5885 259.2153 14.46814206885092"
      },
      "geometry": {
        "type": "Point",
        "coordinates": [
          -39.12279938152031,
          69.90248548547059
        ]
      }
    }
  ]
}